{
"type": "FeatureCollection",
"name": "cc_grid_pockets",
"crs": { "type": "name", "properties": { "name": "urn:ogc:def:crs:OGC:1.3:CRS84" } },
"features": [
{ "type": "Feature", "properties": { "key_from": "st40-ln55_hist", "key_to": "st60-ln55_hist", "area_km2": 0.00075520899657562459 }, "geometry": { "type": "Polygon", "coordinates": [ [ [ -123.314799700771005, 38.556848440595779 ], [ -123.315176342590107, 38.557360355524857 ], [ -123.31445557308821, 38.556795173376742 ], [ -123.314799700771005, 38.556848440595779 ] ] ] } },
{ "type": "Feature", "properties": { "key_from": "st20-ln120_hist", "key_to": "st0-ln120_hist", "area_km2": 71.353186174223424 }, "geometry": { "type": "Polygon", "coordinates": [ [ [ -112.804923784953317, 28.159462116658407 ], [ -112.79969356621524, 28.151044248245508 ], [ -112.775539261183027, 28.112141496742268 ], [ -112.751406865552994, 28.073229350847598 ], [ -112.727296352651749, 28.034307802679404 ], [ -112.737846028365254, 28.015138326842195 ], [ -112.766330146168542, 28.00086229132722 ], [ -112.768760998999966, 28.002127270000074 ], [ -112.770941863970876, 28.00222250560191 ], [ -112.785676802999916, 28.002865940000053 ], [ -112.799362776999899, 28.017423908000051 ], [ -112.805409308999941, 28.032049872000055 ], [ -112.803700324999923, 28.045721747000101 ], [ -112.796956273999925, 28.057951230000043 ], [ -112.789558122999892, 28.067474823000079 ], [ -112.791215886999879, 28.078168021000085 ], [ -112.798427601999961, 28.081451504000103 ], [ -112.801389521999894, 28.085751805000086 ], [ -112.811770571999972, 28.120539654000126 ], [ -112.808135739652741, 28.147707944309218 ], [ -112.807706362999866, 28.150914709000034 ], [ -112.804923784953317, 28.159462116658407 ] ] ] } },
{ "type": "Feature", "properties": { "key_from": "st20-ln120_hist", "key_to": "st0-ln120_hist", "area_km2": 149.60891385301849 }, "geometry": { "type": "Polygon", "coordinates": [ [ [ -113.197923231527824, 28.786056452142461 ], [ -113.189164035182699, 28.772216998982628 ], [ -113.164655521732683, 28.733463500057123 ], [ -113.140169349534233, 28.694700730476335 ], [ -113.115705491314984, 28.655928682637253 ], [ -113.091263919840301, 28.617147348919481 ], [ -113.066844607913382, 28.578356721685264 ], [ -113.042447528375064, 28.539556793279665 ], [ -113.018072654103875, 28.500747556030163 ], [ -112.993719958015916, 28.461929002246983 ], [ -112.98992034865806, 28.455868340830555 ], [ -112.996856390502842, 28.455696560427615 ], [ -113.001638772999883, 28.455578548000044 ], [ -113.036098091999961, 28.466607144000076 ], [ -113.039617251999914, 28.476230324000056 ], [ -113.063236165999953, 28.479690770000051 ], [ -113.080723423999942, 28.486809703000059 ], [ -113.08249857499996, 28.493182379000093 ], [ -113.102970240999895, 28.504583284000027 ], [ -113.114286691999894, 28.528135410000058 ], [ -113.111657378999922, 28.545722047000112 ], [ -113.116293579999919, 28.565513819000017 ], [ -113.120982885999922, 28.578888678000034 ], [ -113.1316091999999, 28.604583012000017 ], [ -113.126991715999949, 28.627869492000048 ], [ -113.132354267999901, 28.641303172000057 ], [ -113.156045968999948, 28.657625721000034 ], [ -113.169892199, 28.691519064000065 ], [ -113.175859700999894, 28.713513219000042 ], [ -113.181988983999943, 28.715733758000077 ], [ -113.194240514999919, 28.744019945000066 ], [ -113.190377581999911, 28.75945277100006 ], [ -113.191376660309174, 28.772473627528665 ], [ -113.191401238999887, 28.772794082000033 ], [ -113.191752437660952, 28.773084912950345 ], [ -113.199879392999975, 28.779814605000034 ], [ -113.198532240972739, 28.78411332535401 ], [ -113.197923231527824, 28.786056452142461 ] ] ] } },
{ "type": "Feature", "properties": { "key_from": "st20-ln120_hist", "key_to": "st0-ln120_hist", "area_km2": 0.16167511006998475 }, "geometry": { "type": "Polygon", "coordinates": [ [ [ -113.212952158953414, 28.809788772316736 ], [ -113.207164766812312, 28.800651828868983 ], [ -113.209334019888388, 28.801682367634907 ], [ -113.211843059999907, 28.80287436600004 ], [ -113.212470036153462, 28.806782681780724 ], [ -113.212952158953414, 28.809788772316736 ] ] ] } },
{ "type": "Feature", "properties": { "key_from": "st20-ln120_hist", "key_to": "st0-ln120_hist", "area_km2": 1865.0713954702296 }, "geometry": { "type": "Polygon", "coordinates": [ [ [ -113.809218329553332, 29.738063395595852 ], [ -113.784142309743785, 29.699539242361613 ], [ -113.759089325420646, 29.661006002969437 ], [ -113.734059348350925, 29.622463670243793 ], [ -113.709052350340599, 29.583912236992386 ], [ -113.684068303234682, 29.545351696005845 ], [ -113.659107178917012, 29.506782040058038 ], [ -113.63416894931035, 29.468203261905739 ], [ -113.609253586376241, 29.429615354288682 ], [ -113.584361062114979, 29.391018309929745 ], [ -113.559491348565587, 29.352412121534663 ], [ -113.534644417805737, 29.313796781792249 ], [ -113.509820241951743, 29.275172283374228 ], [ -113.48501879315846, 29.236538618935235 ], [ -113.460240043619308, 29.197895781112919 ], [ -113.435483965566107, 29.159243762527741 ], [ -113.410750531269159, 29.120582555783109 ], [ -113.386039713037135, 29.081912153465353 ], [ -113.361351483216993, 29.043232548143557 ], [ -113.336685814194041, 29.004543732369797 ], [ -113.312042678391734, 28.965845698678841 ], [ -113.287422048271779, 28.927138439588457 ], [ -113.262823896333984, 28.888421947598967 ], [ -113.238248195116242, 28.849696215193688 ], [ -113.224664267550722, 28.828271873509784 ], [ -113.226622662844974, 28.829797801730795 ], [ -113.234099018999885, 28.835623150000075 ], [ -113.260386064999906, 28.840106827000035 ], [ -113.268491092999867, 28.832179781000079 ], [ -113.28543402499993, 28.825897953000055 ], [ -113.291005533999851, 28.819009772000079 ], [ -113.302035884999938, 28.80895356800001 ], [ -113.309970576999973, 28.802063611000047 ], [ -113.332493792999898, 28.800621422000063 ], [ -113.354475925999907, 28.800274136000052 ], [ -113.35184894899993, 28.818386459000056 ], [ -113.36529018899995, 28.823844166000054 ], [ -113.370632815999912, 28.837205767000071 ], [ -113.367461775999942, 28.845178073000042 ], [ -113.367288991999899, 28.858519291000043 ], [ -113.365971388999881, 28.86865211100007 ], [ -113.359215245999891, 28.873942552000091 ], [ -113.368324310999938, 28.87774355700007 ], [ -113.372511788999915, 28.886313568999984 ], [ -113.380417932999947, 28.893275941000105 ], [ -113.37912064799994, 28.900213080000114 ], [ -113.36809913999997, 28.901762658000052 ], [ -113.367439284999932, 28.907096091000085 ], [ -113.394227154999868, 28.913138573000086 ], [ -113.391024084999898, 28.928613701000085 ], [ -113.386735093999874, 28.930719803999978 ], [ -113.383030979999958, 28.935499448000058 ], [ -113.387870989999897, 28.939804082000069 ], [ -113.405622305999898, 28.932984210000072 ], [ -113.406285366999924, 28.927115752000088 ], [ -113.413052099999916, 28.922322388000062 ], [ -113.428789621999869, 28.934712853000033 ], [ -113.426217559999941, 28.949139258000031 ], [ -113.434664594999859, 28.959873562000066 ], [ -113.44023106199991, 28.951333130000087 ], [ -113.450063970999921, 28.942290453000059 ], [ -113.462221135999954, 28.946654498 ], [ -113.473187247999931, 28.947796431000107 ], [ -113.478693027999853, 28.946247890000063 ], [ -113.483019915999947, 28.939342174999972 ], [ -113.480619316999935, 28.933431489000071 ], [ -113.487972788999912, 28.930302828000034 ], [ -113.483147017999883, 28.921696566000069 ], [ -113.472212675999913, 28.915174921000066 ], [ -113.47902902499996, 28.901909098000104 ], [ -113.477229254999926, 28.898159433000085 ], [ -113.481537759999966, 28.893398388000023 ], [ -113.504770648999894, 28.889319670000052 ], [ -113.524853686999876, 28.891565685000071 ], [ -113.526006512999956, 28.901184722000032 ], [ -113.53388600399991, 28.906565173000025 ], [ -113.540495648999908, 28.920487058000035 ], [ -113.546486330999926, 28.93332237700011 ], [ -113.557875556999903, 28.948253316 ], [ -113.555473362999919, 28.955259039000083 ], [ -113.546938498999936, 28.958981665000081 ], [ -113.544987666999901, 28.97552676300004 ], [ -113.549743403999926, 28.993182009000044 ], [ -113.561865175999912, 29.000146323000099 ], [ -113.563598550999956, 29.014041636000059 ], [ -113.561717738999889, 29.023672457000117 ], [ -113.556217231999952, 29.027955902000091 ], [ -113.550034254999915, 29.038609046000072 ], [ -113.539641832999905, 29.039615325000035 ], [ -113.535883837999918, 29.051420258000068 ], [ -113.547400572999976, 29.065372281000034 ], [ -113.564329165999965, 29.091634348000081 ], [ -113.570880685999924, 29.115163004000053 ], [ -113.579373613999934, 29.126417711000048 ], [ -113.591054021999952, 29.12912103400004 ], [ -113.602051691999904, 29.14088387900005 ], [ -113.608517435999943, 29.154337611000074 ], [ -113.60844984499991, 29.163416270000074 ], [ -113.613964710999952, 29.162374683000056 ], [ -113.624364398999916, 29.162424688 ], [ -113.624917920999906, 29.169906257000029 ], [ -113.628547618999875, 29.175265809000038 ], [ -113.632231001999884, 29.1736802 ], [ -113.64137755499992, 29.183833347000114 ], [ -113.638349524999938, 29.198636264000086 ], [ -113.646118096999928, 29.202034654000034 ], [ -113.655336902999935, 29.207323395000092 ], [ -113.656557338999917, 29.218440144000024 ], [ -113.647320520999912, 29.228004951000063 ], [ -113.638481333999934, 29.240484145000082 ], [ -113.62307566099993, 29.252714105000027 ], [ -113.624869241999932, 29.258601734000131 ], [ -113.631579100999986, 29.263960920000049 ], [ -113.636330875999931, 29.282178761000093 ], [ -113.648516853999894, 29.293960740000085 ], [ -113.680839961999951, 29.315998444000062 ], [ -113.710848805999944, 29.346584444000086 ], [ -113.740857649999953, 29.377170444000086 ], [ -113.770866493999947, 29.407756444000114 ], [ -113.787386412999922, 29.414768583000075 ], [ -113.796631523999892, 29.416436904000051 ], [ -113.803888111999896, 29.424445129000016 ], [ -113.813107042999931, 29.428236665000064 ], [ -113.824752658999913, 29.429886443000058 ], [ -113.832674001999933, 29.435245228 ], [ -113.831948928999935, 29.450170392000107 ], [ -113.838665294999956, 29.456602332000074 ], [ -113.850323560999939, 29.458786835000048 ], [ -113.865047415999911, 29.463655595 ], [ -113.880316807999918, 29.477049733000062 ], [ -113.897464381999868, 29.48564994100008 ], [ -113.910877522999868, 29.500628559000067 ], [ -113.922476879999877, 29.512402578 ], [ -113.930501614999869, 29.520161322000064 ], [ -113.943134597999929, 29.524751897000026 ], [ -113.952003403999896, 29.538775450000085 ], [ -113.9580646, 29.540235620000104 ], [ -113.96552405899989, 29.54670802900003 ], [ -113.974193584999938, 29.556943620000037 ], [ -113.98128726399996, 29.567895576000097 ], [ -113.994333518999909, 29.57698185300006 ], [ -114.005573949999899, 29.576748600000098 ], [ -114.01486293499994, 29.57795358900006 ], [ -114.022508965999918, 29.581341168000076 ], [ -114.023048441999975, 29.584202874000052 ], [ -114.027680569999887, 29.58726454800005 ], [ -114.030395803999909, 29.593208578000084 ], [ -114.032590007999929, 29.594428926 ], [ -114.046275929999922, 29.596376266000046 ], [ -114.050378296999895, 29.605218922000088 ], [ -114.056386536999938, 29.612137577 ], [ -114.059388610999918, 29.616669048000041 ], [ -114.059400506282486, 29.616715096747093 ], [ -114.028358354994779, 29.631824382421058 ], [ -113.984574769899424, 29.653109984555172 ], [ -113.940768972976343, 29.6743766957593 ], [ -113.89694096603688, 29.69562450722033 ], [ -113.853090750932196, 29.716853410112222 ], [ -113.809218329553332, 29.738063395595852 ] ], [ [ -113.512072144177509, 28.994236794221141 ], [ -113.509488160774183, 28.995928583746732 ], [ -113.507041372749242, 28.995574571625529 ], [ -113.50954878497366, 28.998329630919748 ], [ -113.512925435196962, 28.99498649000591 ], [ -113.512072144177509, 28.994236794221141 ] ], [ [ -113.49895510600993, 29.041357396764084 ], [ -113.499403503057792, 29.045296538796141 ], [ -113.50175864816012, 29.042055152615013 ], [ -113.49895510600993, 29.041357396764084 ] ], [ [ -113.50250629753485, 29.054511821359473 ], [ -113.506335956913261, 29.058751721739309 ], [ -113.510743767307119, 29.054915221427603 ], [ -113.507629960847765, 29.051772934578146 ], [ -113.50250629753485, 29.054511821359473 ] ], [ [ -113.50887959062365, 29.070036214669916 ], [ -113.505895518894633, 29.075494671077628 ], [ -113.510338363771993, 29.078032639173259 ], [ -113.511021580312061, 29.080490271658917 ], [ -113.505382452107227, 29.089547836275425 ], [ -113.51017877466272, 29.093170935521471 ], [ -113.524267075779832, 29.092585405965888 ], [ -113.51931769002293, 29.082136593649668 ], [ -113.512062366732934, 29.078266772307177 ], [ -113.511218872791787, 29.074454081953188 ], [ -113.512511654138365, 29.071372352399926 ], [ -113.508195277220878, 29.065327934349373 ], [ -113.50887959062365, 29.070036214669916 ] ] ] } },
{ "type": "Feature", "properties": { "key_from": "st-20-ln130_hist", "key_to": "st0-ln130_hist", "area_km2": 0.099004642253156805 }, "geometry": { "type": "Polygon", "coordinates": [ [ [ -110.947432458929001, 27.885287582116593 ], [ -110.952334256533547, 27.893148413202919 ], [ -110.951622827432217, 27.893261554719601 ], [ -110.950306769999969, 27.891099351000026 ], [ -110.946629832736704, 27.886979834771591 ], [ -110.946229062321862, 27.886530817197702 ], [ -110.947432458929001, 27.885287582116593 ] ] ] } },
{ "type": "Feature", "properties": { "key_from": "st-20-ln130_hist", "key_to": "st0-ln130_hist", "area_km2": 7.2406052352656074 }, "geometry": { "type": "Polygon", "coordinates": [ [ [ -110.962433694959415, 27.909338752738286 ], [ -110.96971297160853, 27.921003307642742 ], [ -110.994297120836819, 27.960368058562672 ], [ -110.995355758142381, 27.962062146336976 ], [ -110.989697428846569, 27.959168783190119 ], [ -110.975941535999908, 27.952134507000043 ], [ -110.972295321265705, 27.949355476954381 ], [ -110.975334332772263, 27.94756855216723 ], [ -110.975200357206631, 27.944883920668566 ], [ -110.969970606945537, 27.937291168537179 ], [ -110.968389854456518, 27.931240865175365 ], [ -110.957248139883234, 27.928280230810994 ], [ -110.951353791209471, 27.93046511695804 ], [ -110.948550086907616, 27.929631012162766 ], [ -110.943066060066826, 27.920191354406818 ], [ -110.943049591828412, 27.91972411746206 ], [ -110.947621222999956, 27.919094143000049 ], [ -110.953236456999932, 27.916571356000066 ], [ -110.960754827901766, 27.91065900554166 ], [ -110.962433694959415, 27.909338752738286 ] ] ] } },
{ "type": "Feature", "properties": { "key_from": "st45-ln60", "key_to": "st53-ln60", "area_km2": 25.039454245430072 }, "geometry": { "type": "Polygon", "coordinates": [ [ [ -123.071209212245336, 38.337426478842943 ], [ -123.084252160626534, 38.3549938802391 ], [ -123.112169270714872, 38.392562704207911 ], [ -123.140114585227906, 38.430125298139416 ], [ -123.168088142066082, 38.467681668859328 ], [ -123.178979721834466, 38.482292405428822 ], [ -123.170924035999903, 38.479188398000062 ], [ -123.159869287880085, 38.471361748812072 ], [ -123.159544952703726, 38.470862555889475 ], [ -123.158476053550004, 38.470375165214158 ], [ -123.149826598499914, 38.464249331500056 ], [ -123.128729160999924, 38.449310265000065 ], [ -123.124578631999896, 38.437479288000048 ], [ -123.112759805999957, 38.420619134000034 ], [ -123.102057160999905, 38.412164286000085 ], [ -123.095810261999915, 38.395831515000054 ], [ -123.087030183999886, 38.39126237900004 ], [ -123.079044693999947, 38.372078026 ], [ -123.070932273999929, 38.359954194000089 ], [ -123.068387917999928, 38.346290233000033 ], [ -123.071209212245336, 38.337426478842943 ] ] ] } },
{ "type": "Feature", "properties": { "key_from": "st45-ln60", "key_to": "st53-ln60", "area_km2": 57.783146487613436 }, "geometry": { "type": "Polygon", "coordinates": [ [ [ -122.994135643900691, 38.233419467684548 ], [ -123.000669678757887, 38.242249959729847 ], [ -123.028502402406389, 38.279837514845994 ], [ -123.049463711133299, 38.308116226084806 ], [ -123.046460375999914, 38.312048445000066 ], [ -123.029521556999882, 38.312691558000047 ], [ -123.002280363999915, 38.294859195000065 ], [ -122.987116161999936, 38.277722996000094 ], [ -122.974535185999912, 38.266194223000106 ], [ -122.968517624999961, 38.250872761000039 ], [ -122.968815284999891, 38.237093637000079 ], [ -122.968483557133126, 38.236724023041276 ], [ -122.969019395043674, 38.234524666726458 ], [ -122.966416121807541, 38.234420366519984 ], [ -122.96457100899994, 38.232364285000045 ], [ -122.954336038999898, 38.231402197000108 ], [ -122.950655011999913, 38.217294762000073 ], [ -122.943998613999895, 38.219311254000047 ], [ -122.935536261999914, 38.215480861000039 ], [ -122.919122926698137, 38.194282716787122 ], [ -122.888417120999947, 38.15460846600007 ], [ -122.869424491999951, 38.13265329950007 ], [ -122.85043186299994, 38.110698133000078 ], [ -122.848903060220451, 38.109452547721446 ], [ -122.848913372352641, 38.10936720646815 ], [ -122.84882255046989, 38.109386951072779 ], [ -122.832264777999953, 38.095892645000063 ], [ -122.827910588384569, 38.080170919834956 ], [ -122.828457842418473, 38.08007535697157 ], [ -122.827697018265027, 38.079399605711551 ], [ -122.825672980999911, 38.072088934000085 ], [ -122.843373175999929, 38.091986395000049 ], [ -122.868763800999929, 38.110256252 ], [ -122.891509568999936, 38.130804755000028 ], [ -122.907277248999904, 38.152344259000088 ], [ -122.925570098999927, 38.175140664000097 ], [ -122.936089812232339, 38.186551525371392 ], [ -122.964816130999921, 38.217700385000029 ], [ -122.985254218999884, 38.237811760000064 ], [ -122.996296689999909, 38.242729824000044 ], [ -122.994135643900691, 38.233419467684548 ] ] ] } },
{ "type": "Feature", "properties": { "key_from": "st45-ln60", "key_to": "st53-ln60", "area_km2": 0.50494324879875352 }, "geometry": { "type": "Polygon", "coordinates": [ [ [ -122.964835379138449, 38.193791316819464 ], [ -122.972865008500463, 38.204656147192694 ], [ -122.986998913862408, 38.223771671352473 ], [ -122.983050354999932, 38.220129478000054 ], [ -122.973839471999881, 38.20803831000007 ], [ -122.964788138999864, 38.198598197000081 ], [ -122.964835379138449, 38.193791316819464 ] ] ] } },
{ "type": "Feature", "properties": { "key_from": "st39.4-ln83.3", "key_to": "st35.8-ln85.4", "area_km2": 0.38089370675336293 }, "geometry": { "type": "Polygon", "coordinates": [ [ [ -119.108390887441331, 34.104566080181804 ], [ -119.108902778751826, 34.103848802257033 ], [ -119.110879197750208, 34.10107923361462 ], [ -119.114328579999963, 34.101792710000062 ], [ -119.119594330999917, 34.103739206000107 ], [ -119.119778543, 34.10613152800002 ], [ -119.117051769999961, 34.106416040999981 ], [ -119.108390887441331, 34.104566080181804 ] ] ] } },
{ "type": "Feature", "properties": { "key_from": "st50.5-ln80", "key_to": "st51-ln80", "area_km2": 73.459176684095752 }, "geometry": { "type": "Polygon", "coordinates": [ [ [ -120.649411412940765, 34.772309551479289 ], [ -120.631703510750327, 34.777888920254398 ], [ -120.640248175999957, 34.758530992000075 ], [ -120.627593554000015, 34.743475653000083 ], [ -120.617014126999962, 34.725653387000079 ], [ -120.603053655999929, 34.704781950000012 ], [ -120.606054635999925, 34.679349989000045 ], [ -120.614135657999881, 34.659403305000041 ], [ -120.628369969372073, 34.632368428382719 ], [ -120.653996603050672, 34.668839915658374 ], [ -120.679957996852124, 34.705746110190546 ], [ -120.705943904019222, 34.742645184144777 ], [ -120.677683023405876, 34.757480940455643 ], [ -120.649411412940765, 34.772309551479289 ] ] ] } },
{ "type": "Feature", "properties": { "key_from": "st20-ln100_hist", "key_to": "st40-ln100_hist", "area_km2": 61.39502090338825 }, "geometry": { "type": "Polygon", "coordinates": [ [ [ -116.214757691630396, 30.832901456976543 ], [ -116.240152761231172, 30.871918465201421 ], [ -116.265571867457496, 30.910926662933257 ], [ -116.291015040792232, 30.949926057726618 ], [ -116.295629884584486, 30.956994812814969 ], [ -116.268177863999952, 30.963812567000037 ], [ -116.261110389551447, 30.961114030793052 ], [ -116.250913281474041, 30.944146433131472 ], [ -116.246846662768277, 30.941613932476614 ], [ -116.243254869060777, 30.936002572745913 ], [ -116.237799657233097, 30.937372622388619 ], [ -116.233028673751718, 30.935266946670421 ], [ -116.226185675999957, 30.926459052000077 ], [ -116.218576626999962, 30.913153387000083 ], [ -116.205147058129285, 30.896407218683201 ], [ -116.204794761952044, 30.894348890944556 ], [ -116.202067488442822, 30.888759466199925 ], [ -116.198054068698085, 30.884217941008483 ], [ -116.193797617389933, 30.882364731307824 ], [ -116.175774033999929, 30.860147233000088 ], [ -116.1615761896891, 30.858750884656629 ], [ -116.169540839928246, 30.854882347286846 ], [ -116.214757691630396, 30.832901456976543 ] ] ] } },
{ "type": "Feature", "properties": { "key_from": "st20-ln110_hist", "key_to": "st40-ln110_hist", "area_km2": 323.20959390389208 }, "geometry": { "type": "Polygon", "coordinates": [ [ [ -116.227556424968895, 30.810604945611814 ], [ -116.214757691630396, 30.832901456976543 ], [ -116.169540839928246, 30.854882347286846 ], [ -116.1615761896891, 30.858750884656629 ], [ -116.152076213999948, 30.857815507000016 ], [ -116.148633662640037, 30.854924624346097 ], [ -116.127138988319942, 30.836869185173118 ], [ -116.105644313999889, 30.818813746000036 ], [ -116.068023240999935, 30.813177802000013 ], [ -116.058385300565504, 30.80295700548232 ], [ -116.057870897857129, 30.802104380114613 ], [ -116.054839647999927, 30.78367747600003 ], [ -116.045847134499908, 30.756944077500059 ], [ -116.045141532865358, 30.754847131330077 ], [ -116.042927851785265, 30.731506697491078 ], [ -116.043167843916791, 30.719412214081935 ], [ -116.036381411187989, 30.711386339059853 ], [ -116.035741005562471, 30.710208843882491 ], [ -116.03494218633324, 30.695854667666694 ], [ -116.033029751666575, 30.661498656333414 ], [ -116.031117316999911, 30.627142645000077 ], [ -116.036307340570772, 30.58500060993978 ], [ -116.041497364141648, 30.542858574879563 ], [ -116.042892844591506, 30.531479626006778 ], [ -116.047598017269067, 30.538620888791431 ], [ -116.073233967829069, 30.577502821322245 ], [ -116.098893999148387, 30.616375719367792 ], [ -116.124578141408207, 30.655239590182127 ], [ -116.150286424832402, 30.694094441002122 ], [ -116.176018879687362, 30.73294027904786 ], [ -116.201775536282227, 30.771777111522368 ], [ -116.227556424968895, 30.810604945611814 ] ] ] } },
{ "type": "Feature", "properties": { "key_from": "st26.4-ln93.4", "key_to": "st28-ln93.3", "area_km2": 256.82495242157262 }, "geometry": { "type": "Polygon", "coordinates": [ [ [ -117.01001476253191, 32.186212211513052 ], [ -117.031780414940982, 32.226062616016904 ], [ -117.053567511700777, 32.26590626475123 ], [ -117.075376082214106, 32.305743168337536 ], [ -117.092223201034088, 32.346812145631858 ], [ -117.109087455260294, 32.387875979483923 ], [ -117.125968869980099, 32.42893468419912 ], [ -117.14286747032773, 32.46998827408521 ], [ -117.159783281484152, 32.511036763452651 ], [ -117.176716328677273, 32.552080166614644 ], [ -117.193666637182147, 32.593118497886955 ], [ -117.210634232320785, 32.6341517715884 ], [ -117.227619139462632, 32.675180002040484 ], [ -117.237561181503708, 32.699173961598206 ], [ -117.237833569999921, 32.707223084000056 ], [ -117.224243916999967, 32.718640552000025 ], [ -117.222969255204291, 32.719229215669642 ], [ -117.209857763999949, 32.725284143000096 ], [ -117.174638125, 32.726732120000072 ], [ -117.177343384999958, 32.715030606000134 ], [ -117.166574673999918, 32.706773179000052 ], [ -117.146325055999881, 32.694262023000064 ], [ -117.135883372138224, 32.690746729712323 ], [ -117.135376241809382, 32.690442176537921 ], [ -117.134916058954957, 32.690421008601859 ], [ -117.133208787999962, 32.689846096000025 ], [ -117.119016572999897, 32.670609972000058 ], [ -117.119577635898423, 32.659094318550672 ], [ -117.119891983999921, 32.652633962000081 ], [ -117.102311058999916, 32.620468257000063 ], [ -117.103384153999897, 32.606810452000033 ], [ -117.115089206999926, 32.600261543000059 ], [ -117.124085536999957, 32.606766157000017 ], [ -117.131277764999936, 32.63099088300001 ], [ -117.140570780009469, 32.648840863789964 ], [ -117.142796618999938, 32.653115941000053 ], [ -117.155853456999907, 32.672367021000092 ], [ -117.164173956999974, 32.683783270000042 ], [ -117.168058045999928, 32.698805086000078 ], [ -117.187859490999912, 32.705935569000061 ], [ -117.190956105999902, 32.713699247000065 ], [ -117.205813761999906, 32.713403109000048 ], [ -117.216006483472071, 32.708522650522085 ], [ -117.220029591999946, 32.706596241000028 ], [ -117.226186031999916, 32.697206661000102 ], [ -117.223974835999897, 32.684714441000025 ], [ -117.199622934702731, 32.683325628280826 ], [ -117.188384568999965, 32.682684637000108 ], [ -117.166371222999956, 32.669501044000086 ], [ -117.149810350999942, 32.646307684000078 ], [ -117.149121460237453, 32.644664207137787 ], [ -117.137006646999893, 32.615760699000106 ], [ -117.133948974999882, 32.592895686000091 ], [ -117.132191535999908, 32.568060614000046 ], [ -117.126128709999904, 32.539496161000024 ], [ -117.125121488944188, 32.53166949000402 ], [ -117.124149853999938, 32.524119343000059 ], [ -117.12452675999991, 32.512923819000065 ], [ -117.123384619999882, 32.49056493700008 ], [ -117.121245897999955, 32.47190989800005 ], [ -117.118397589999901, 32.454535223000107 ], [ -117.107289191999968, 32.437648830000064 ], [ -117.090062161009428, 32.407474497031508 ], [ -117.087603155240487, 32.398513219903286 ], [ -117.081407888805629, 32.388050297975148 ], [ -117.073475714999887, 32.369452216000084 ], [ -117.057308180333237, 32.338609117000054 ], [ -117.04680076689047, 32.318567046490621 ], [ -117.042485833369327, 32.30417123569454 ], [ -117.036979119499662, 32.294674171332581 ], [ -117.035477569558338, 32.285279555838486 ], [ -117.028873470102695, 32.281615235243407 ], [ -117.02782096359617, 32.278598835378354 ], [ -117.022644835450649, 32.274008221513618 ], [ -117.022327753576775, 32.271501964033583 ], [ -117.018754207022027, 32.272045713108142 ], [ -117.00987708199996, 32.265082098000072 ], [ -116.966664191999925, 32.256577867000068 ], [ -116.948312954999906, 32.247015692000048 ], [ -116.946146994928554, 32.245092776402949 ], [ -116.974372825321666, 32.219086761902254 ], [ -117.01001476253191, 32.186212211513052 ] ] ] } },
{ "type": "Feature", "properties": { "key_from": "st20-ln110_hist", "key_to": "st40-ln110_hist", "area_km2": 1136.2775229537692 }, "geometry": { "type": "Polygon", "coordinates": [ [ [ -114.832592467570848, 29.235519406819506 ], [ -114.856024104133994, 29.22382029081184 ], [ -114.899363132935235, 29.20215870060829 ], [ -114.94267992093377, 29.180478401503482 ], [ -114.985974467175069, 29.158779402017924 ], [ -115.029246770742759, 29.137061710658482 ], [ -115.072496830758411, 29.115325335918424 ], [ -115.115724646381508, 29.093570286277284 ], [ -115.140490441904888, 29.132791750723495 ], [ -115.165279230934189, 29.172003900223025 ], [ -115.190091042112485, 29.211206742668157 ], [ -115.214925904123319, 29.250400285933971 ], [ -115.23978384569098, 29.289584537877666 ], [ -115.264664895580466, 29.328759506339043 ], [ -115.289569082597481, 29.367925199140476 ], [ -115.314496435588666, 29.407081624086832 ], [ -115.339446983441448, 29.446228788965488 ], [ -115.364420755084268, 29.485366701546365 ], [ -115.389417779486479, 29.524495369582002 ], [ -115.414438085658531, 29.563614800807489 ], [ -115.439481702651904, 29.602725002940584 ], [ -115.448972873124376, 29.61753528439781 ], [ -115.423565240999906, 29.595688954000089 ], [ -115.405003555438157, 29.581894061186635 ], [ -115.404472482038955, 29.581009933565806 ], [ -115.403294004414661, 29.580623125936071 ], [ -115.397507294499931, 29.576320585000047 ], [ -115.371449347999956, 29.556952216000084 ], [ -115.328585508999964, 29.543418724000055 ], [ -115.285721669999958, 29.529885232000069 ], [ -115.259005430999963, 29.509971458000063 ], [ -115.232289191999939, 29.49005768400006 ], [ -115.20970618399997, 29.459336655500074 ], [ -115.187123175999972, 29.428615627 ], [ -115.155337727342697, 29.424887751309317 ], [ -115.153628447883989, 29.42389270273036 ], [ -115.150251261539779, 29.424290286410464 ], [ -115.145680304999928, 29.423753159500041 ], [ -115.131758426865062, 29.422121576296696 ], [ -115.130640197747368, 29.42165400799416 ], [ -115.130013022095099, 29.421916889572227 ], [ -115.104237433999899, 29.418890692000065 ], [ -115.060170051333245, 29.405178127000084 ], [ -115.016102668666591, 29.391465562000025 ], [ -115.014671784634771, 29.391020672530427 ], [ -115.01111185594867, 29.38863833432033 ], [ -114.998508213004953, 29.385993416407704 ], [ -114.972035285999908, 29.377752997000037 ], [ -114.948437145999875, 29.354361057500043 ], [ -114.924839005999871, 29.330969118000063 ], [ -114.902152152499895, 29.30931711200007 ], [ -114.879465298999946, 29.287665106000066 ], [ -114.851396061999949, 29.258299975000078 ], [ -114.839162397809403, 29.243480791753417 ], [ -114.839161061387173, 29.243478905014385 ], [ -114.839160455755007, 29.243478438691749 ], [ -114.832592467570848, 29.235519406819506 ] ] ] } },
{ "type": "Feature", "properties": { "key_from": "st20-ln110_hist", "key_to": "st40-ln110_hist", "area_km2": 139.13067822371767 }, "geometry": { "type": "Polygon", "coordinates": [ [ [ -115.802837246498555, 30.165085121807458 ], [ -115.817953137510997, 30.188275738857303 ], [ -115.843373712391013, 30.227239310990498 ], [ -115.868818098307074, 30.266193782586761 ], [ -115.894286325059582, 30.305139161053468 ], [ -115.919778422490893, 30.344075453780889 ], [ -115.945294420485624, 30.383002668142144 ], [ -115.956978934373026, 30.400813367044528 ], [ -115.950546980961164, 30.400652641589996 ], [ -115.932932094999913, 30.400213934000078 ], [ -115.898326861999919, 30.386661940000103 ], [ -115.865966637999975, 30.368713728000063 ], [ -115.837303008999896, 30.346467032000064 ], [ -115.825908094999988, 30.31771064400003 ], [ -115.80728105399993, 30.284125067000062 ], [ -115.798329230999883, 30.240301825000056 ], [ -115.79723059799997, 30.195786851000051 ], [ -115.802235316488478, 30.168383336873053 ], [ -115.802837246498555, 30.165085121807458 ] ] ] } },
{ "type": "Feature", "properties": { "key_from": "st20-ln110_hist", "key_to": "st40-ln110_hist", "area_km2": 18.825806593450238 }, "geometry": { "type": "Polygon", "coordinates": [ [ [ -115.963463594653064, 30.410693816388768 ], [ -115.97083434897057, 30.421920811493273 ], [ -115.976777270243304, 30.43097019768631 ], [ -115.970884102018275, 30.430988371617641 ], [ -115.969956948919474, 30.435169223987117 ], [ -115.964375049558782, 30.439102441589643 ], [ -115.964258613081796, 30.440217269475461 ], [ -115.961740688999896, 30.442206122000062 ], [ -115.962037714201955, 30.445372337092184 ], [ -115.960373174140059, 30.446971187100093 ], [ -115.962357759165343, 30.448783643352549 ], [ -115.963286912999962, 30.458685614000036 ], [ -115.970570441999925, 30.470851955000072 ], [ -115.980132615999935, 30.482570705 ], [ -115.98908443899991, 30.49746328300003 ], [ -115.975766255950646, 30.493742272010088 ], [ -115.978854581419114, 30.492318912285356 ], [ -115.975729232900761, 30.487013649149208 ], [ -115.969327109213992, 30.489064801666569 ], [ -115.966725979594443, 30.488530814156004 ], [ -115.96580316012593, 30.487842453665138 ], [ -115.963356284276912, 30.484078147892514 ], [ -115.958163651474237, 30.481333189198516 ], [ -115.947928813292023, 30.464142425568209 ], [ -115.945399496797307, 30.462801713184728 ], [ -115.940103613634633, 30.463039340956779 ], [ -115.934627319931906, 30.451359117881822 ], [ -115.940223997801937, 30.445355656260322 ], [ -115.937912688935725, 30.434092621887281 ], [ -115.947336391999897, 30.423407294000075 ], [ -115.959142689519425, 30.414100019198663 ], [ -115.963463594653064, 30.410693816388768 ] ] ] } },
{ "type": "Feature", "properties": { "key_from": "st40-ln120_hist", "key_to": "st20-ln120_hist", "area_km2": 10.267197424671936 }, "geometry": { "type": "Polygon", "coordinates": [ [ [ -114.304934673135051, 27.795333797001401 ], [ -114.303006195154225, 27.792219371641398 ], [ -114.2786389316597, 27.752842419661061 ], [ -114.262807596023805, 27.727234813303653 ], [ -114.282378709999961, 27.735825914000088 ], [ -114.304758266999912, 27.764797268000063 ], [ -114.312163865999949, 27.779689846000039 ], [ -114.308013475999957, 27.789536851000054 ], [ -114.304934673135051, 27.795333797001401 ] ] ] } },
{ "type": "Feature", "properties": { "key_from": "st20-ln130_hist", "key_to": "st0-ln130_hist", "area_km2": 389.78850845177573 }, "geometry": { "type": "Polygon", "coordinates": [ [ [ -112.766330146168542, 28.00086229132722 ], [ -112.737846028365254, 28.015138326842195 ], [ -112.713325996255264, 27.976206386503812 ], [ -112.688828179130454, 27.937264819694583 ], [ -112.664352550081375, 27.898313618691308 ], [ -112.639899082235502, 27.85935277575226 ], [ -112.615467748757126, 27.820382283117301 ], [ -112.591058522847362, 27.781402133007774 ], [ -112.566671377744072, 27.742412317626712 ], [ -112.542306286721811, 27.703412829158381 ], [ -112.517963223091812, 27.664403659768787 ], [ -112.493642160201915, 27.625384801605239 ], [ -112.4917175290052, 27.622295149357853 ], [ -112.497755161999933, 27.624407509000058 ], [ -112.515753427999883, 27.628983948000066 ], [ -112.528322515999974, 27.636730044000032 ], [ -112.543965832999902, 27.640752276000036 ], [ -112.559926475210133, 27.641235317240149 ], [ -112.561710488110705, 27.642018408932756 ], [ -112.565382558945586, 27.641399880534152 ], [ -112.566737065999902, 27.641440690000067 ], [ -112.598007758999913, 27.6542973990001 ], [ -112.599626250999933, 27.666613031000022 ], [ -112.621123707999899, 27.678078158000037 ], [ -112.623220438999965, 27.687261564 ], [ -112.63274634099993, 27.694317683000047 ], [ -112.636813216999911, 27.703974955000053 ], [ -112.643341270999954, 27.710461831000078 ], [ -112.64876278699991, 27.710528211000049 ], [ -112.657828742999939, 27.708503498000134 ], [ -112.663154352999911, 27.714974179000095 ], [ -112.670342106999897, 27.717730224000029 ], [ -112.678863084999932, 27.728583075000081 ], [ -112.692868078999965, 27.742555740000011 ], [ -112.703531282999904, 27.75495992800008 ], [ -112.708750664999897, 27.767281714000017 ], [ -112.705608237999911, 27.777407574000062 ], [ -112.715129159999947, 27.783898672000031 ], [ -112.716085565999947, 27.800454686000066 ], [ -112.712993246999957, 27.806302205000069 ], [ -112.719450593999909, 27.819208769000067 ], [ -112.719370634999905, 27.826180209000086 ], [ -112.724180813999908, 27.827303216000075 ], [ -112.725440414999909, 27.822488923000051 ], [ -112.738603073999897, 27.82957627400009 ], [ -112.742824389999882, 27.837394733000021 ], [ -112.758387027999916, 27.846107019000037 ], [ -112.773217562999932, 27.863902157 ], [ -112.768750372999961, 27.880418553000073 ], [ -112.766799427999914, 27.890589222000084 ], [ -112.761921149999907, 27.893727370000061 ], [ -112.763025423999906, 27.901244906000059 ], [ -112.761725836999915, 27.907640291000078 ], [ -112.762164150999951, 27.919976643000023 ], [ -112.766109967999896, 27.938125142000029 ], [ -112.757255267999938, 27.963031241000085 ], [ -112.756584687999904, 27.968385500000082 ], [ -112.761169065999908, 27.984430036000052 ], [ -112.760362202999957, 27.997756250000101 ], [ -112.766330146168542, 28.00086229132722 ] ] ] } },
{ "type": "Feature", "properties": { "key_from": "st20-ln140_hist", "key_to": "st0-ln140_hist", "area_km2": 87.214374693165013 }, "geometry": { "type": "Polygon", "coordinates": [ [ [ -110.721017237276754, 24.684040423048391 ], [ -110.719159434954435, 24.680842909763204 ], [ -110.696205525481076, 24.641311967997058 ], [ -110.673271749975555, 24.601770638978213 ], [ -110.650358084639137, 24.562218913673053 ], [ -110.691124428584573, 24.540142862554621 ], [ -110.72873134509571, 24.519751916613533 ], [ -110.728647994999918, 24.522280589000033 ], [ -110.734872229999894, 24.544500973000048 ], [ -110.738585197999868, 24.554572296000078 ], [ -110.732611056999957, 24.560709437000089 ], [ -110.735173044999911, 24.570233039000069 ], [ -110.73980203899994, 24.588196111000073 ], [ -110.738802906999908, 24.601292124999983 ], [ -110.739313618999915, 24.62125269400007 ], [ -110.73297911399996, 24.638413615000019 ], [ -110.729313773999948, 24.662464433000064 ], [ -110.723527531999949, 24.68117784800004 ], [ -110.721017237276754, 24.684040423048391 ] ] ] } },
{ "type": "Feature", "properties": { "key_from": "st20-ln150_hist", "key_to": "st0-ln150_hist", "area_km2": 601.34034443786641 }, "geometry": { "type": "Polygon", "coordinates": [ [ [ -110.72873134509571, 24.519751916613533 ], [ -110.691124428584573, 24.540142862554621 ], [ -110.650358084639137, 24.562218913673053 ], [ -110.621699111636218, 24.559779962529042 ], [ -110.598246031444233, 24.519818811210197 ], [ -110.574813710662227, 24.479846879649457 ], [ -110.551402124598624, 24.439864158616217 ], [ -110.528011248595448, 24.399870638858022 ], [ -110.504641058028227, 24.359866311100415 ], [ -110.481291528306002, 24.319851166046806 ], [ -110.457962634871194, 24.279825194378716 ], [ -110.434654353199676, 24.239788386755578 ], [ -110.411366658800645, 24.199740733814608 ], [ -110.39736105752128, 24.175633138953796 ], [ -110.402088995999918, 24.175523179000017 ], [ -110.407190070630875, 24.176235890365444 ], [ -110.452855918999916, 24.182615512000048 ], [ -110.485707160999951, 24.190130927000059 ], [ -110.511586066999925, 24.195746161000034 ], [ -110.539622694999935, 24.203989020000051 ], [ -110.562358638999953, 24.21250286500009 ], [ -110.564987772999956, 24.219922452000031 ], [ -110.57688516499995, 24.225514130000107 ], [ -110.581001241999914, 24.240310912000027 ], [ -110.598030113999954, 24.247097888000045 ], [ -110.609889757999909, 24.253724964000106 ], [ -110.615115328999934, 24.269087751000079 ], [ -110.628443937999918, 24.284665595000028 ], [ -110.641474824999889, 24.309167794000071 ], [ -110.638426488999897, 24.314865990000023 ], [ -110.653678192999905, 24.32314365000007 ], [ -110.655231058999917, 24.32896727500011 ], [ -110.681849134999922, 24.36065965700006 ], [ -110.678601850999968, 24.373202029000051 ], [ -110.68350771399993, 24.381732926000048 ], [ -110.681499192999937, 24.390615316000044 ], [ -110.686437419999933, 24.3980929770001 ], [ -110.693595781999932, 24.407715844000087 ], [ -110.688740808999896, 24.415469539000078 ], [ -110.692486543999877, 24.42395640300008 ], [ -110.692113489999983, 24.435499643000039 ], [ -110.684360735999874, 24.444250825000061 ], [ -110.685699022999913, 24.454169012000072 ], [ -110.68720018899991, 24.466038831000034 ], [ -110.704460167499946, 24.485407641000098 ], [ -110.721720145999981, 24.504776451000055 ], [ -110.725606280889863, 24.510883593919836 ], [ -110.728855354999894, 24.515989407000063 ], [ -110.72873134509571, 24.519751916613533 ] ] ] } },
{ "type": "Feature", "properties": { "key_from": "st20-ln150_hist", "key_to": "st0-ln150_hist", "area_km2": 31.985346147714836 }, "geometry": { "type": "Polygon", "coordinates": [ [ [ -110.387888624488511, 24.159318908049784 ], [ -110.364852934023276, 24.119612854417834 ], [ -110.360057021316976, 24.111340543193954 ], [ -110.360856968999968, 24.111082928000101 ], [ -110.369538003497198, 24.113216522802276 ], [ -110.370558172999907, 24.113467250000038 ], [ -110.392693890999936, 24.106242929000093 ], [ -110.416836620999902, 24.108575691000059 ], [ -110.422763945999918, 24.120304374000114 ], [ -110.417302906999879, 24.128009113000083 ], [ -110.421038185999905, 24.136519105000026 ], [ -110.429377956999915, 24.145168147000053 ], [ -110.425396866999904, 24.160277785000076 ], [ -110.433779377999969, 24.167880681000032 ], [ -110.432428585999901, 24.173617081000099 ], [ -110.403838539999896, 24.167526581000072 ], [ -110.401163058874715, 24.166149743105681 ], [ -110.387888624488511, 24.159318908049784 ] ] ] } }
]
}
